     2.100          NAVIGATION                              RINEX VERSION / TYPE
fic2rin                                 02/04/2009 01:21:51 PGM / RUN BY / DATE
                                                            END OF HEADER
17 09  2  3  2  0  0.0  .459249131382D-04  .909494701773D-12  .000000000000D+00
     .790000000000D+02 -.231562500000D+02  .462233539597D-08 -.163896993313D+01
    -.119581818581D-05  .419090525247D-02  .831298530102D-05  .515363195610D+04
     .180000000000D+06 -.167638063431D-07  .578050364929D+00 -.132247805595D-06
     .959839092831D+00  .220218750000D+03 -.275346310623D+01 -.790997233924D-08
    -.129291099779D-09  .100000000000D+01  .151700000000D+04  .000000000000D+00
     .240000000000D+01  .000000000000D+00 -.102445483208D-07  .790000000000D+02
     .172806000000D+06  .400000000000D+01
18 09  2  3  2  0  0.0 -.870311632752D-04  .363797880709D-11  .000000000000D+00
     .115000000000D+03  .649687500000D+02  .514128558375D-08 -.426365854752D+00
     .350736081600D-05  .991796178278D-02  .397674739361D-05  .515375586319D+04
     .180000000000D+06  .726431608200D-07  .268890522774D+01  .117346644402D-06
     .944121217181D+00  .294875000000D+03 -.243790629007D+01 -.865036032223D-08
    -.135719938995D-10  .100000000000D+01  .151700000000D+04  .000000000000D+00
     .240000000000D+01  .000000000000D+00 -.107102096081D-07  .115000000000D+03
     .172806000000D+06  .400000000000D+01
19 09  2  3  2  0  0.0  .329962931573D-04 -.568434188608D-12  .000000000000D+00
     .124000000000D+03 -.853125000000D+01  .469162399640D-08 -.238157619494D+01
    -.340864062309D-06  .511030887719D-02  .886432826519D-05  .515377647018D+04
     .180000000000D+06 -.447034835815D-07  .634420775155D+00  .111758708954D-07
     .957537353617D+00  .209593750000D+03 -.391042729276D+00 -.794997400547D-08
    -.163578242262D-09  .100000000000D+01  .151700000000D+04  .000000000000D+00
     .240000000000D+01  .000000000000D+00 -.144354999065D-07  .124000000000D+03
     .172806000000D+06  .400000000000D+01
20 09  2  3  2  0  0.0  .918786972761D-04 -.113686837722D-11  .000000000000D+00
     .180000000000D+02  .841250000000D+02  .511449875369D-08 -.280313912725D+00
     .426545739174D-05  .392553512938D-02  .469945371151D-05  .515368725967D+04
     .180000000000D+06 -.391155481339D-07  .263515322875D+01 -.186264514923D-07
     .943685931758D+00  .282687500000D+03  .131473967902D+01 -.857678582898D-08
     .275011455331D-10  .100000000000D+01  .151700000000D+04  .000000000000D+00
     .240000000000D+01  .000000000000D+00 -.651925802231D-08  .180000000000D+02
     .172806000000D+06  .400000000000D+01
21 09  2  3  2  0  0.0  .308952294290D-04 -.181898940355D-11  .000000000000D+00
     .300000000000D+02  .744062500000D+02  .511771317330D-08  .849198212286D+00
     .402890145779D-05  .146137630800D-01  .879354774952D-05  .515364741707D+04
     .180000000000D+06 -.968575477600D-07  .163026662386D+01  .221654772758D-06
     .934291964233D+00  .196937500000D+03 -.265017970884D+01 -.837320592049D-08
    -.239652839646D-09  .100000000000D+01  .151700000000D+04  .000000000000D+00
     .240000000000D+01  .000000000000D+00 -.116415321827D-07  .300000000000D+02
     .172806000000D+06  .400000000000D+01
22 09  2  3  2  0  0.0  .205669552088D-03 -.568434188608D-12  .000000000000D+00
     .107000000000D+03  .680625000000D+02  .507985445347D-08 -.155317741982D+01
     .361725687981D-05  .490005314350D-02  .374950468540D-05  .515367016602D+04
     .180000000000D+06  .614672899246D-07  .269483999088D+01  .726431608200D-07
     .941783563329D+00  .297468750000D+03 -.182268585974D+01 -.850356849347D-08
     .642883921553D-11  .100000000000D+01  .151700000000D+04  .000000000000D+00
     .340000000000D+01  .000000000000D+00 -.181607902050D-07  .107000000000D+03
     .172806000000D+06  .400000000000D+01
23 09  2  3  2  0  0.0  .386320520192D-03  .682121026330D-12  .000000000000D+00
     .330000000000D+02 -.444062500000D+02  .436839624695D-08 -.292353515663D+01
    -.226870179176D-05  .577266828623D-02  .429712235928D-05  .515365108109D+04
     .180000000000D+06 -.391155481339D-07 -.257433384619D+01  .800937414169D-07
     .971037345980D+00  .305718750000D+03  .288316020637D+01 -.810426614664D-08
    -.165364030933D-09  .100000000000D+01  .151700000000D+04  .000000000000D+00
     .240000000000D+01  .000000000000D+00 -.200234353542D-07  .330000000000D+02
     .172806000000D+06  .400000000000D+01
24 09  2  3  2  0  0.0  .162508804351D-03  .295585778076D-11  .000000000000D+00
     .500000000000D+01  .726250000000D+02  .476948438245D-08 -.529559499193D+00
     .369735062122D-05  .696266128216D-02  .852160155773D-05  .515367037201D+04
     .180000000000D+06 -.242143869400D-07  .166048676192D+01 -.102445483208D-06
     .950932325303D+00  .209437500000D+03 -.639412386230D+00 -.816641159239D-08
     .535736601294D-11  .100000000000D+01  .151700000000D+04  .000000000000D+00
     .340000000000D+01  .000000000000D+00 -.139698386192D-08  .261000000000D+03
     .172806000000D+06  .400000000000D+01
25 09  2  3  2  0  0.0  .217002816498D-03  .254658516496D-10  .000000000000D+00
     .115000000000D+03 -.616250000000D+02  .434303804782D-08 -.674019024169D-02
    -.317022204399D-05  .117864281638D-01  .807270407677D-05  .515367507362D+04
     .180000000000D+06 -.124797224998D-06 -.162656375876D+01 -.111758708954D-06
     .967987392926D+00  .232812500000D+03 -.123051053067D+01 -.816212569958D-08
     .133576992589D-09  .100000000000D+01  .151700000000D+04  .000000000000D+00
     .485000000000D+01  .000000000000D+00 -.745058059692D-08  .115000000000D+03
     .172806000000D+06  .400000000000D+01
26 09  2  3  2  0  0.0  .415812246501D-04  .306954461848D-11  .000000000000D+00
     .360000000000D+02 -.405937500000D+02  .370836875416D-08  .292184055768D+01
    -.229850411415D-05  .195360856596D-01  .535137951374D-05  .515364763451D+04
     .180000000000D+06 -.745058059692D-08 -.252712650967D+01 -.305473804474D-06
     .993276111674D+00  .290281250000D+03  .967087688067D+00 -.753317092966D-08
    -.167149819604D-09  .100000000000D+01  .151700000000D+04  .000000000000D+00
     .240000000000D+01  .000000000000D+00 -.605359673500D-08  .360000000000D+02
     .172806000000D+06  .400000000000D+01
27 09  2  3  2  0  0.0  .215484760702D-04  .318323145621D-11  .000000000000D+00
     .380000000000D+02 -.401875000000D+02  .417124517768D-08 -.905304590667D+00
    -.195577740669D-05  .210621886654D-01  .827014446259D-05  .515518628311D+04
     .180000000000D+06 -.292435288429D-06 -.159069581187D+01  .260770320892D-06
     .972640663233D+00  .230000000000D+03 -.165302396621D+01 -.820998483597D-08
     .177864551630D-09  .100000000000D+01  .151700000000D+04  .000000000000D+00
     .240000000000D+01  .000000000000D+00 -.465661287308D-08  .380000000000D+02
     .172806000000D+06  .400000000000D+01
28 09  2  3  2  0  0.0 -.237044878304D-04  .000000000000D+00  .000000000000D+00
     .930000000000D+02 -.244375000000D+02  .452733143867D-08 -.121698663423D+01
    -.112690031528D-05  .146267066011D-01  .700540840626D-05  .515363483047D+04
     .180000000000D+06  .212341547012D-06 -.455140642915D+00  .275671482086D-06
     .965907808063D+00  .245968750000D+03 -.205804132431D+01 -.803069165340D-08
     .184293390845D-09  .100000000000D+01  .151700000000D+04  .000000000000D+00
     .240000000000D+01  .000000000000D+00 -.102445483208D-07  .930000000000D+02
     .172806000000D+06  .400000000000D+01
29 09  2  3  2  0  0.0 -.132890418172D-04  .306954461848D-11  .000000000000D+00
     .590000000000D+02 -.134687500000D+02  .465697969618D-08  .904024082380D+00
    -.754371285439D-06  .325368507765D-02  .885501503944D-05  .515374318695D+04
     .180000000000D+06 -.223517417908D-07  .586233185502D+00 -.353902578354D-07
     .960019668124D+00  .209687500000D+03 -.134492359376D+01 -.800069040373D-08
    -.190007914592D-09  .100000000000D+01  .151700000000D+04  .000000000000D+00
     .240000000000D+01  .000000000000D+00 -.884756445885D-08  .590000000000D+02
     .172806000000D+06  .400000000000D+01
31 09  2  3  2  0  0.0 -.501279719174D-04 -.147792889038D-11  .000000000000D+00
     .720000000000D+02 -.696875000000D+02  .412588614543D-08  .170079684492D+01
    -.364519655704D-05  .717474054545D-02  .852532684803D-05  .515363838768D+04
     .180000000000D+06  .119209289551D-06 -.153447044997D+01 -.428408384323D-07
     .971054835166D+00  .215156250000D+03 -.119580813597D+01 -.781639701288D-08
     .137148569931D-09  .100000000000D+01  .151700000000D+04  .000000000000D+00
     .340000000000D+01  .000000000000D+00 -.130385160446D-07  .720000000000D+02
     .172806000000D+06  .400000000000D+01
32 09  2  3  2  0  0.0  .298676546663D-03 -.318323145621D-11  .000000000000D+00
     .660000000000D+02  .815312500000D+02  .452947438507D-08  .255594954487D+01
     .404566526413D-05  .135708844755D-01  .411830842495D-05  .515364879417D+04
     .180000000000D+06  .223517417908D-06  .274226438787D+01 -.204890966415D-07
     .965740330275D+00  .300093750000D+03 -.120386980791D+01 -.808890836407D-08
    -.692886004340D-10  .100000000000D+01  .151700000000D+04  .000000000000D+00
     .240000000000D+01  .000000000000D+00 -.325962901115D-08  .660000000000D+02
     .172806000000D+06  .400000000000D+01
 3 09  2  3  1 59 44.0  .347721856087D-03  .522959453519D-11  .000000000000D+00
     .380000000000D+02 -.201250000000D+02  .535343727787D-08 -.305168742113D+01
    -.109337270260D-05  .116209443659D-01  .792182981968D-05  .515372763634D+04
     .179984000000D+06  .596046447754D-07  .451284409876D+00 -.121071934700D-06
     .926394743305D+00  .208156250000D+03  .890255430964D+00 -.815676833357D-08
    -.117147736816D-09  .100000000000D+01  .151700000000D+04  .000000000000D+00
     .240000000000D+01  .000000000000D+00 -.419095158577D-08  .380000000000D+02
     .173706000000D+06  .400000000000D+01
